{
"type": "FeatureCollection",
"name": "boundary_forcing_points",
"crs": { "type": "name", "properties": { "name": "urn:ogc:def:crs:OGC:1.3:CRS84" } },
"features": [
{ "type": "Feature", "properties": { "role": "ocean_forcing_point", "name": "bnd01", "ID": "bnd001" }, "geometry": { "type": "Point", "coordinates": [ -95.2, 28.965 ] } },
{ "type": "Feature", "properties": { "role": "ocean_forcing_point", "name": "bnd02", "ID": "bnd002" }, "geometry": { "type": "Point", "coordinates": [ -95.0, 28.965 ] } },
{ "type": "Feature", "properties": { "role": "ocean_forcing_point", "name": "bnd03", "ID": "bnd003" }, "geometry": { "type": "Point", "coordinates": [ -94.82, 28.965 ] } },
{ "type": "Feature", "properties": { "role": "ocean_forcing_point", "name": "bnd04", "ID": "bnd004" }, "geometry": { "type": "Point", "coordinates": [ -94.658, 29.052 ] } },
{ "type": "Feature", "properties": { "role": "ocean_forcing_point", "name": "bnd05", "ID": "bnd005" }, "geometry": { "type": "Point", "coordinates": [ -94.553, 29.14 ] } },
{ "type": "Feature", "properties": { "role": "ocean_forcing_point", "name": "bnd06", "ID": "bnd006" }, "geometry": { "type": "Point", "coordinates": [ -94.451, 29.3 ] } },
{ "type": "Feature", "properties": { "role": "ocean_forcing_point", "name": "bnd07", "ID": "bnd007" }, "geometry": { "type": "Point", "coordinates": [ -94.451, 29.45 ] } }
]
}
