{
"type": "FeatureCollection",
"name": "domain",
"crs": { "type": "name", "properties": { "name": "urn:ogc:def:crs:OGC:1.3:CRS84" } },
"features": [
{ "type": "Feature", "properties": { "name": "domain" }, "geometry": { "type": "Polygon", "coordinates": [ [ [ -95.458911789999945, 28.955868372000054 ], [ -95.458911789999945, 29.960995031000039 ], [ -94.440879769999981, 29.960995031000039 ], [ -94.440879769999981, 29.221821012000078 ], [ -94.756068118999963, 28.955868372000054 ], [ -95.458911789999945, 28.955868372000054 ] ] ] } }
]
}
