{
"type": "FeatureCollection",
"name": "noaa_boundary_locations",
"crs": { "type": "name", "properties": { "name": "urn:ogc:def:crs:OGC:1.3:CRS84" } },
"features": [
{ "type": "Feature", "properties": { "ID": 1, "name": "bnd001", "boundary_label": "bnd001", "noaa_station": "8771450", "boundary_source_id": "1", "index": 1 }, "geometry": { "type": "Point", "coordinates": [ -95.2, 28.965 ] } },
{ "type": "Feature", "properties": { "ID": 2, "name": "bnd002", "boundary_label": "bnd002", "noaa_station": "8771450", "boundary_source_id": "2", "index": 2 }, "geometry": { "type": "Point", "coordinates": [ -95.0, 28.965 ] } },
{ "type": "Feature", "properties": { "ID": 3, "name": "bnd003", "boundary_label": "bnd003", "noaa_station": "8771450", "boundary_source_id": "3", "index": 3 }, "geometry": { "type": "Point", "coordinates": [ -94.82, 28.965 ] } },
{ "type": "Feature", "properties": { "ID": 4, "name": "bnd004", "boundary_label": "bnd004", "noaa_station": "8771450", "boundary_source_id": "4", "index": 4 }, "geometry": { "type": "Point", "coordinates": [ -94.658, 29.052 ] } },
{ "type": "Feature", "properties": { "ID": 5, "name": "bnd005", "boundary_label": "bnd005", "noaa_station": "8771341", "boundary_source_id": "5", "index": 5 }, "geometry": { "type": "Point", "coordinates": [ -94.553, 29.14 ] } },
{ "type": "Feature", "properties": { "ID": 6, "name": "bnd006", "boundary_label": "bnd006", "noaa_station": "8770971", "boundary_source_id": "6", "index": 6 }, "geometry": { "type": "Point", "coordinates": [ -94.451, 29.3 ] } },
{ "type": "Feature", "properties": { "ID": 7, "name": "bnd007", "boundary_label": "bnd007", "noaa_station": "8770971", "boundary_source_id": "7", "index": 7 }, "geometry": { "type": "Point", "coordinates": [ -94.451, 29.45 ] } }
]
}
